AISSAT 1                
1 36797U 10035C   23358.59220834  .00004141  00000+0  43651-3 0  9996
2 36797  98.2050 208.5451 0010791 154.3042 205.8713 14.89877940729146
TISAT 1                 
1 36799U 10035E   23358.64700734  .00009852  00000+0  81653-3 0  9994
2 36799  98.1090 235.7709 0011100  60.0218 300.2104 14.99004897730939
YAOGAN 10               
1 36834U 10038A   23358.85759472  .00001320  00000+0  17174-3 0  9992
2 36834  97.9582  11.9540 0001512  96.8712   4.2817 14.82338051723029
SHIJIAN-6 04B (SJ-6 04B)
1 37180U 10051B   23358.82227532  .00001879  00000+0  17516-3 0  9995
2 37180  97.8228 343.2886 0012739  94.2103 266.0573 14.95406790720195
FENGYUN 3B              
1 37214U 10059A   23358.86200409  .00000224  00000+0  14098-3 0  9994
2 37214  99.0724  19.3610 0021498 226.2760 257.5245 14.14421670679461
COSMO-SKYMED 4          
1 37216U 10060A   23358.79010227  .00001054  00000+0  13884-3 0  9991
2 37216  97.8850 179.5175 0001338  85.2666 274.8700 14.82171335710518
ELEKTRO-L 1 (GOMS 2)    
1 37344U 11001A   23358.19493876 -.00000100  00000+0  00000+0 0  9992
2 37344   7.6056  63.1284 0004807  16.1592 162.3925  1.00148322 47408
RESOURCESAT-2           
1 37387U 11015A   23358.77811871  .00000322  00000+0  16623-3 0  9994
2 37387  98.6019  64.2328 0003335 259.9966 100.0835 14.21679763658066
YOUTHSAT                
1 37388U 11015B   23358.60983069  .00000410  00000+0  19328-3 0  9999
2 37388  98.2973   2.7453 0015751 119.9285 352.1672 14.24738087658643
APRIZESAT 6             
1 37793U 11044F   23358.60727889  .00001386  00000+0  21601-3 0  9997
2 37793  98.3256 232.5047 0046921  94.8313 327.8608 14.73903072663608
JUGNU                   
1 37839U 11058B   23358.51891622  .00000656  00000+0  20521-3 0  9999
2 37839  19.9622  48.0430 0018866 158.0067 342.3161 14.13081388630732
SRMSAT                  
1 37841U 11058D   23358.60643160  .00000542  00000+0  15195-3 0  9999
2 37841  19.9706 138.6376 0011963 324.5024 122.7962 14.11004777629739
SUOMI NPP               
1 37849U 11061A   23358.81817700  .00000180  00000+0  10600-3 0  9991
2 37849  98.7246 294.4402 0001533  79.8371 280.2978 14.19533843629982
M-CUBED & EXP-1 PRIME   
1 37855U 11061F   23358.16454031  .00068057  00000+0  14344-2 0  9995
2 37855 101.6948  69.4021 0089020 173.6177 186.6210 15.40787295665663
YAOGAN 12               
1 37875U 11066B   23358.79411153  .00014243  00000+0  59568-3 0  9995
2 37875  97.2489  59.5230 0006475 235.5957 124.4669 15.23674556674714
ZIYUAN 3-1 (ZY 3-1)     
1 38046U 12001A   23358.79421850  .00015355  00000+0  57692-3 0  9992
2 38046  97.2743  60.0023 0004332  26.7907 333.3555 15.27255761664137
BEIDOU-2 M4             
1 38251U 12018B   23356.66830956 -.00000093  00000+0  00000+0 0  9994
2 38251  56.3606 334.5288 0016135 268.1196  91.6920  1.86231893 79047
ARIRANG-3 (KOMPSAT-3)   
1 38338U 12025B   23358.86659101  .00001186  00000+0  24386-3 0  9993
2 38338  98.2428 300.2314 0011635  69.9048 290.3404 14.62366097619119
HORYU-2                 
1 38340U 12025D   23358.81324661  .00005308  00000+0  70754-3 0  9991
2 38340  98.1677  90.5073 0009543 240.1487 119.8776 14.80037302624682
METOP-B                 
1 38771U 12049A   23358.76536623  .00000264  00000+0  14077-3 0  9994
2 38771  98.6550  54.7073 0001347 125.6887 234.4416 14.21442819584624
SJ-9A                   
1 38860U 12056A   23358.87338279  .00001854  00000+0  24216-3 0  9992
2 38860  97.5840 355.8163 0028044 356.3569   3.7436 14.81348316604569
COSMOS 2484             
1 39059U 13001C   23358.81668930  .00000035  00000+0  18253-3 0  9992
2 39059  82.5024  64.8348 0026372 206.3595 153.6145 12.42888128496280
SARAL                   
1 39086U 13009A   23358.81563933  .00000264  00000+0  11382-3 0  9997
2 39086  98.5451 181.3792 0002978  85.4055 274.7469 14.32317019565976
AAUSAT 3                
1 39087U 13009B   23358.50812204  .00001380  00000+0  47713-3 0  9999
2 39087  98.3707 188.6219 0012863  51.8552 308.3792 14.37228969566947
STRAND-1                
1 39090U 13009E   23358.75148763  .00000701  00000+0  25680-3 0  9997
2 39090  98.3795 186.8702 0009866  59.8920 300.3243 14.35822429567089
BRITE-AUSTRIA           
1 39091U 13009F   23358.49082112  .00000461  00000+0  17451-3 0  9994
2 39091  98.3830 185.8709 0011451  66.5388 293.7001 14.35636937567053
UNIBRITE                
1 39092U 13009G   23358.77107765  .00000454  00000+0  17258-3 0  9995
2 39092  98.3868 186.0246 0010318  62.1043 298.1187 14.35510490567054
AIST-2 (RS-43)          
1 39133U 13015D   23358.82740767  .00007357  00000+0  45084-3 0  9996
2 39133  64.8732 303.4463 0013269 224.1238 135.8827 15.10783278586855
BEESAT-3                
1 39135U 13015F   23358.52515433  .01597827  17421-2  20829-2 0  9999
2 39135  64.8332  42.2918 0009634 337.3471  22.7272 16.07014480592048
BEESAT-2                
1 39136U 13015G   23358.60050941  .00286118  00000+0  19457-2 0  9991
2 39136  64.8560  61.3708 0014598 286.1302  73.8244 15.73694286591708
GAOFEN-1                
1 39150U 13018A   23358.81007502  .00001407  00000+0  20888-3 0  9995
2 39150  98.0112  67.8623 0018909 301.4201  58.5160 14.76499593574683
NEE-01 PEGASO           
1 39151U 13018B   23358.27260777  .00004867  00000+0  58792-3 0  9999
2 39151  98.0223 109.1044 0014455 251.7567 108.2074 14.84149362575861
TURKSAT-3USAT           
1 39152U 13018C   23358.82749067  .00005244  00000+0  61412-3 0  9998
2 39152  97.8423  82.1965 0014667 213.4897 146.5392 14.85376934576169
CUBEBUG-1 (CAPITAN BETO)
1 39153U 13018D   23358.79089667  .00005537  00000+0  64654-3 0  9994
2 39153  98.0560 116.7849 0014282 242.8386 117.1373 14.85498354576155
PROBA-V                 
1 39159U 13021A   23358.73920225  .00000185  00000+0  99705-4 0  9992
2 39159  98.3111  10.0145 0002988 264.3108  95.7731 14.23191103552306
ESTCUBE 1               
1 39161U 13021C   23358.12834738  .00003276  00000+0  49053-3 0  9995
2 39161  97.8528  64.9123 0010434  80.6267 279.6122 14.75293600571129
ARIRANG-5 (KOMPSAT-5)   
1 39227U 13042A   23358.78753513  .00003563  00000+0  25850-3 0  9992
2 39227  97.6159 182.1439 0001594  58.1163 302.0219 15.04542395567781
GONETS-M 5              
1 39249U 13048A   23358.60022146  .00000067  00000+0  40947-3 0  9994
2 39249  82.4809 187.9006 0016754  29.3982 330.8037 12.42886202466383
GONETS-M 7              
1 39251U 13048C   23358.81116250  .00000053  00000+0  31134-3 0  9993
2 39251  82.4877 190.1959 0017319  29.6279 330.5778 12.42864127466554
FENGYUN 3C              
1 39260U 13052A   23358.87662572  .00000198  00000+0  12051-3 0  9994
2 39260  98.4263   2.8178 0012146 110.9337 249.3139 14.16123435530513
CASSIOPE                
1 39265U 13055A   23358.55755692  .00022459  00000+0  50484-3 0  9999
2 39265  80.9576  29.9396 0536868  89.1787 277.0860 14.60343037532670
APRIZESAT 7             
1 39416U 13066A   23358.47045435  .00002847  00000+0  32415-3 0  9990
2 39416  97.6469 318.9336 0038532 330.6927  29.2127 14.86435371546426
ZACUBE-1 (TSHEPISOSAT)  
1 39417U 13066B   23358.81310652  .00007737  00000+0  84927-3 0  9993
2 39417  97.7116 314.2960 0053827  21.5011 338.8448 14.86885462545506
APRIZESAT 8             
1 39425U 13066K   23358.86293616  .00002504  00000+0  30536-3 0  9991
2 39425  97.7060 312.1513 0050490  22.5881 337.7540 14.83325858545510
CINEMA-3 (KHUSAT-2)     
1 39426U 13066L   23358.36200830  .00003268  00000+0  48508-3 0  9999
2 39426  97.8389 281.3700 0097689 256.3917 102.6396 14.72510496540851
TRITON-1                
1 39427U 13066M   23358.81863707  .00005649  00000+0  82458-3 0  9995
2 39427  97.8420 277.6858 0104013 286.5723  72.4081 14.72485498540588
DELFI-N3XT              
1 39428U 13066N   23358.28197409  .00010496  00000+0  14272-2 0  9990
2 39428  97.8389 276.6875 0104802 298.1621  60.9032 14.75178474540138
GOMX-1                  
1 39430U 13066Q   23358.75182888  .00002898  00000+0  49545-3 0  9999
2 39430  97.7559 238.6427 0144336  89.7893 271.9849 14.62925625537388
BRITE-PL1 (LEM)         
1 39431U 13066R   23358.47569442  .00001283  00000+0  27795-3 0  9994
2 39431  97.6830 167.2313 0197431 307.2337  51.0986 14.48421684532672
ICUBE-1                 
1 39432U 13066S   23357.94653787  .00008816  00000+0  73939-3 0  9992
2 39432  97.4990 340.9068 0026528 202.3462 157.6607 14.98324474547524
HUMSAT-D                
1 39433U 13066T   23358.52519995  .00014802  00000+0  10830-2 0  9992
2 39433  97.4816 350.0894 0021763 159.3570 200.8540 15.03497809549493
VELOX-PII               
1 39438U 13066Y   23358.41577604  .00004931  00000+0  59679-3 0  9993
2 39438  97.7675 305.7663 0066437  86.6198 274.2612 14.82532134543115
FIRST-MOVE              
1 39439U 13066Z   23358.33437901  .00017214  00000+0  15719-2 0  9994
2 39439  97.7031 319.2510 0052789   7.5495 352.6508 14.94040484544571
CUBEBUG-2 (LO-74)       
1 39440U 13066AA  23358.79540345  .00005206  00000+0  64423-3 0  9998
2 39440  97.7955 301.7532 0074063 125.7469 235.0662 14.81207257543552
NEE-02 KRYSAOR          
1 39441U 13066AB  23358.38077351  .00003074  00000+0  40576-3 0  9990
2 39441  97.8058 297.7839 0077090 146.0034 214.6151 14.78687425541941
FUNCUBE-1 (AO-73)       
1 39444U 13066AE  23358.86650651  .00009233  00000+0  96064-3 0  9992
2 39444  97.6975 317.1179 0051217   4.9081 355.2628 14.89092077544580
HINCUBE                 
1 39445U 13066AF  23358.80730717  .00009592  00000+0  10053-2 0  9990
2 39445  97.6990 316.7756 0051596   7.9517 352.2506 14.88772511544096
UWE-3                   
1 39446U 13066AG  23358.85118108  .00005856  00000+0  68590-3 0  9999
2 39446  97.7605 307.8849 0064958  75.1624 285.6774 14.83863159543276
COSMOS 2488             
1 39483U 13076A   23358.76393169  .00000033  00000+0  16587-3 0  9994
2 39483  82.4848  12.9410 0018033 267.5814  92.3201 12.42876603453602
